NORAD_CAT_ID,OBJECT_NAME,OBJECT_TYPE,EPOCH,MEAN_MOTION,ECCENTRICITY,INCLINATION,RA_OF_ASC_NODE,ARG_OF_PERICENTER,MEAN_ANOMALY,BSTAR,MEAN_MOTION_DOT,MEAN_MOTION_DDOT,TLE_LINE0,TLE_LINE1,TLE_LINE2,SEMIMAJOR_AXIS,PERIOD,APOGEE,PERIGEE,DECAYED
49413.0,STARLINK-3157,PAYLOAD,2023-06-04 03:29:04,15.08842235,0.0001152,53.2172,71.1513,103.2219,256.8902,0.00011874,1.603e-05,0.0,0 STARLINK-3157,1 49413U 21104F   23155.14519139  .00001603  00000-0  11874-3 0  9992,2 49413  53.2172  71.1513 0001152 103.2219 256.8902 15.08842235 86361,6917.874,95.437,540.535,538.942,0.0
49413.0,STARLINK-3157,PAYLOAD,2023-06-05 03:19:51,15.08848769,0.0001079,53.2179,66.6877,87.6672,272.4444,0.00019921,2.885e-05,0.0,0 STARLINK-3157,1 49413U 21104F   23156.13878653  .00002885  00000-0  19921-3 0  9995,2 49413  53.2179  66.6877 0001079  87.6672 272.4444 15.08848769 87607,6917.854,95.437,540.465,538.972,0.0
49413.0,STARLINK-3157,PAYLOAD,2023-06-05 11:16:47,15.08836093,0.0001214,53.218,65.2016,89.7612,270.3519,8.159e-05,1.011e-05,0.0,0 STARLINK-3157,1 49413U 21104F   23156.46999825  .00001011  00000-0  81590-4 0  9998,2 49413  53.2180  65.2016 0001214  89.7612 270.3519 15.08836093 86568,6917.892,95.438,540.597,538.917,0.0
49413.0,STARLINK-3157,PAYLOAD,2023-06-06 03:10:38,15.08845581,0.0001316,53.2184,62.2281,86.2326,273.8817,4.6113e-05,4.46e-06,0.0,0 STARLINK-3157,1 49413U 21104F   23157.13239496  .00000446  00000-0  46113-4 0  9997,2 49413  53.2184  62.2281 0001316  86.2326 273.8817 15.08845581 87753,6917.863,95.437,540.639,538.818,0.0
49413.0,STARLINK-3157,PAYLOAD,2023-06-07 03:01:25,15.08852672,0.0001196,53.2185,57.767,85.0391,275.0738,1.9925e-05,2.9e-07,0.0,0 STARLINK-3157,1 49413U 21104F   23158.12598819  .00000029  00000-0  19925-4 0  9992,2 49413  53.2185  57.7670 0001196  85.0391 275.0738 15.08852672 86811,6917.842,95.437,540.534,538.879,0.0
49413.0,STARLINK-3157,PAYLOAD,2023-06-07 17:19:54,15.08834284,0.0001338,53.2189,55.0916,81.8035,278.3109,6.5352e-05,7.52e-06,0.0,0 STARLINK-3157,1 49413U 21104F   23158.72215944  .00000752  00000-0  65352-4 0  9991,2 49413  53.2189  55.0916 0001338  81.8035 278.3109 15.08834284 87993,6917.898,95.438,540.688,538.837,0.0
49413.0,STARLINK-3157,PAYLOAD,2023-06-07 20:30:40,15.08835548,0.0001096,53.2179,54.4971,88.6535,271.4582,5.877e-05,6.48e-06,0.0,0 STARLINK-3157,1 49413U 21104F   23158.85463892  .00000648  00000-0  58770-4 0  9992,2 49413  53.2179  54.4971 0001096  88.6535 271.4582 15.08835548 86922,6917.894,95.438,540.517,539.001,0.0
49413.0,STARLINK-3157,PAYLOAD,2023-06-08 02:52:13,15.08843114,0.000119,53.2185,53.3068,97.5754,262.5373,3.0595e-05,1.99e-06,0.0,0 STARLINK-3157,1 49413U 21104F   23159.11959515  .00000199  00000-0  30595-4 0  9990,2 49413  53.2185  53.3068 0001190  97.5754 262.5373 15.08843114 88054,6917.871,95.437,540.559,538.913,0.0
49413.0,STARLINK-3157,PAYLOAD,2023-06-09 09:04:32,15.08844266,0.0001167,53.2184,47.6569,101.6323,258.48,2.7248e-05,1.46e-06,0.0,0 STARLINK-3157,1 49413U 21104F   23160.37815550  .00000146  00000-0  27248-4 0  9993,2 49413  53.2184  47.6569 0001167 101.6323 258.4800 15.08844266 88247,6917.867,95.437,540.54,538.925,0.0
49413.0,STARLINK-3157,PAYLOAD,2023-06-09 17:01:29,15.08834824,0.0001198,53.2181,46.1687,111.0003,249.1118,2.2783e-05,7.5e-07,0.0,0 STARLINK-3157,1 49413U 21104F   23160.70936370  .00000075  00000-0  22783-4 0  9994,2 49413  53.2181  46.1687 0001198 111.0003 249.1118 15.08834824 88296,6917.896,95.438,540.59,538.932,0.0
49413.0,STARLINK-3157,PAYLOAD,2023-06-09 18:36:52,15.08834083,0.0001188,53.2182,45.8714,112.0214,248.0904,1.4373e-05,-5.9e-07,0.0,0 STARLINK-3157,1 49413U 21104F   23160.77560453 -.00000059  00000-0  14373-4 0  9995,2 49413  53.2182  45.8714 0001188 112.0214 248.0904 15.08834083 87217,6917.898,95.438,540.585,538.942,0.0
49413.0,STARLINK-3157,PAYLOAD,2023-06-10 08:55:20,15.08840478,0.0001053,53.2179,43.1987,100.2375,259.8736,6.1675e-05,6.94e-06,0.0,0 STARLINK-3157,1 49413U 21104F   23161.37176049  .00000694  00000-0  61675-4 0  9997,2 49413  53.2179  43.1987 0001053 100.2375 259.8736 15.08840478 87302,6917.879,95.438,540.472,539.015,0.0
49413.0,STARLINK-3157,PAYLOAD,2023-06-11 08:46:07,15.08841442,0.0001086,53.219,38.7384,87.599,272.5127,3.1761e-05,2.18e-06,0.0,0 STARLINK-3157,1 49413U 21104F   23162.36536325  .00000218  00000-0  31761-4 0  9999,2 49413  53.2190  38.7384 0001086  87.5990 272.5127 15.08841442 87456,6917.876,95.437,540.492,538.99,0.0
49413.0,STARLINK-3157,PAYLOAD,2023-06-11 23:04:35,15.08844272,9.4e-05,53.2192,36.0624,92.0125,268.0975,5.9488e-05,6.59e-06,0.0,0 STARLINK-3157,1 49413U 21104F   23162.96152254  .00000659  00000-0  59488-4 0  9995,2 49413  53.2192  36.0624 0000940  92.0125 268.0975 15.08844272 88631,6917.867,95.437,540.383,539.082,0.0
49413.0,STARLINK-3157,PAYLOAD,2023-06-12 21:20:00,15.08825308,9.85e-05,53.2191,31.899,93.9499,266.1606,0.00035955,5.437e-05,0.0,0 STARLINK-3157,1 49413U 21104F   23163.88889010  .00005437  00000-0  35955-3 0  9995,2 49413  53.2191  31.8990 0000985  93.9499 266.1606 15.08825308 87685,6917.925,95.438,540.472,539.109,0.0
49413.0,STARLINK-3157,PAYLOAD,2023-06-12 22:55:22,15.08847518,0.0001059,53.219,31.6018,87.5303,272.581,7.9363e-05,9.76e-06,0.0,0 STARLINK-3157,1 49413U 21104F   23163.95511982  .00000976  00000-0  79363-4 0  9998,2 49413  53.2190  31.6018 0001059  87.5303 272.5810 15.08847518 88786,6917.857,95.437,540.455,538.99,0.0
49413.0,STARLINK-3157,PAYLOAD,2023-06-13 14:49:14,15.08837685,0.00011,53.2181,28.6279,85.2711,274.8407,4.0401e-05,3.55e-06,0.0,0 STARLINK-3157,1 49413U 21104F   23164.61752676  .00000355  00000-0  40401-4 0  9991,2 49413  53.2181  28.6279 0001100  85.2711 274.8407 15.08837685 87797,6917.887,95.438,540.513,538.991,0.0
49413.0,STARLINK-3157,PAYLOAD,2023-06-13 21:10:46,15.08837698,0.0001072,53.2179,27.438,86.9988,273.1127,4.1631e-05,3.75e-06,0.0,0 STARLINK-3157,1 49413U 21104F   23164.88248680  .00000375  00000-0  41631-4 0  9993,2 49413  53.2179  27.4380 0001072  86.9988 273.1127 15.08837698 87836,6917.887,95.438,540.494,539.011,0.0
49413.0,STARLINK-3157,PAYLOAD,2023-06-14 00:21:32,15.08844391,0.0001094,53.2183,26.8437,76.4923,283.6191,4.3509e-05,4.05e-06,0.0,0 STARLINK-3157,1 49413U 21104F   23165.01496247  .00000405  00000-0  43509-4 0  9993,2 49413  53.2183  26.8437 0001094  76.4923 283.6191 15.08844391 88942,6917.867,95.437,540.489,538.975,0.0
49413.0,STARLINK-3157,PAYLOAD,2023-06-14 21:01:33,15.08850123,0.0001101,53.2183,22.9777,85.4615,274.6503,6.1141e-05,6.86e-06,0.0,0 STARLINK-3157,1 49413U 21104F   23165.87607732  .00000686  00000-0  61141-4 0  9993,2 49413  53.2183  22.9777 0001101  85.4615 274.6503 15.08850123 87983,6917.849,95.437,540.476,538.953,0.0
49413.0,STARLINK-3157,PAYLOAD,2023-06-15 01:47:42,15.08856608,0.0001083,53.2182,22.0856,80.9719,279.1396,-4.693e-06,-3.63e-06,0.0,0 STARLINK-3157,1 49413U 21104F   23166.07479390 -.00000363  00000-0 -46930-5 0  9997,2 49413  53.2182  22.0856 0001083  80.9719 279.1396 15.08856608 89105,6917.83,95.437,540.444,538.945,0.0
49413.0,STARLINK-3157,PAYLOAD,2023-06-15 17:41:34,15.08832907,0.0001561,53.2162,19.111,92.0846,268.0325,-4.0101e-06,-3.52e-06,0.0,0 STARLINK-3157,1 49413U 21104F   23166.73720836 -.00000352  00000-0 -40101-5 0  9996,2 49413  53.2162  19.1110 0001561  92.0846 268.0325 15.08832907 89205,6917.902,95.438,540.847,538.687,0.0
49413.0,STARLINK-3157,PAYLOAD,2023-06-16 01:38:30,15.08839633,0.0001248,53.2178,17.6245,92.1953,267.9182,3.2874e-05,2.35e-06,0.0,0 STARLINK-3157,1 49413U 21104F   23167.06840574  .00000235  00000-0  32874-4 0  9990,2 49413  53.2178  17.6245 0001248  92.1953 267.9182 15.08839633 89253,6917.882,95.438,540.61,538.883,0.0
49413.0,STARLINK-3157,PAYLOAD,2023-06-16 17:32:20,15.08849069,0.0001777,53.2166,14.6514,104.6974,255.4215,0.00011641,1.566e-05,0.0,0 STARLINK-3157,1 49413U 21104F   23167.73079599  .00001566  00000-0  11641-3 0  9991,2 49413  53.2166  14.6514 0001777 104.6974 255.4215 15.08849069 88268,6917.853,95.437,540.947,538.488,0.0
49413.0,STARLINK-3157,PAYLOAD,2023-06-16 20:43:06,15.08856489,0.0001127,53.2182,14.0567,93.4305,266.6816,0.00013197,1.814e-05,0.0,0 STARLINK-3157,1 49413U 21104F   23167.86327116  .00001814  00000-0  13197-3 0  9990,2 49413  53.2182  14.0567 0001127  93.4305 266.6816 15.08856489 89378,6917.83,95.437,540.475,538.915,0.0
49413.0,STARLINK-3157,PAYLOAD,2023-06-17 06:15:27,15.08813616,0.0002078,53.2156,12.2732,87.87,272.253,-0.00032215,-5.408e-05,0.0,0 STARLINK-3157,1 49413U 21104F   23168.26073821 -.00005408  00000-0 -32215-3 0  9993,2 49413  53.2156  12.2732 0002078  87.8700 272.2530 15.08813616 89433,6917.961,95.439,541.264,538.388,0.0
49413.0,STARLINK-3157,PAYLOAD,2023-06-17 15:47:46,15.08815836,0.0001233,53.2182,10.4886,132.8998,227.2098,-0.00025743,-4.38e-05,0.0,0 STARLINK-3157,1 49413U 21104F   23168.65817764 -.00004380  00000-0 -25743-3 0  9994,2 49413  53.2182  10.4886 0001233 132.8998 227.2098 15.08815836 89495,6917.954,95.439,540.672,538.966,0.0
49413.0,STARLINK-3157,PAYLOAD,2023-06-17 20:33:55,15.08823999,0.000113,53.2171,9.5972,104.3084,255.8033,-0.00011196,-2.068e-05,0.0,0 STARLINK-3157,1 49413U 21104F   23168.85689543 -.00002068  00000-0 -11196-3 0  9996,2 49413  53.2171   9.5972 0001130 104.3084 255.8033 15.08823999 88432,6917.929,95.439,540.576,539.013,0.0
49413.0,STARLINK-3157,PAYLOAD,2023-06-18 06:06:14,15.08832338,0.0001132,53.2178,7.8131,102.8043,257.3075,-1.1718e-05,-4.74e-06,0.0,0 STARLINK-3157,1 49413U 21104F   23169.25433474 -.00000474  00000-0 -11718-4 0  9991,2 49413  53.2178   7.8131 0001132 102.8043 257.3075 15.08832338 89584,6917.904,95.438,540.552,538.986,0.0
49413.0,STARLINK-3157,PAYLOAD,2023-06-18 12:27:46,15.08835983,0.0001044,53.2172,6.6231,105.9913,254.1194,0.00011207,1.496e-05,0.0,0 STARLINK-3157,1 49413U 21104F   23169.51929370  .00001496  00000-0  11207-3 0  9990,2 49413  53.2172   6.6231 0001044 105.9913 254.1194 15.08835983 88538,6917.893,95.438,540.48,539.035,0.0
